[Satellite]
VERSION=1.1
NAME=LQSAT
NICKNAME=LQSAT
TLE1=1 40958U 15057A   20156.14462728  .00000016  00000-0  10021-4 0  9997
TLE2=2 40958  97.8532 219.9520 0017926 188.2744 171.8172 14.73120811250540
STATUS=0
